{"type": "FeatureCollection", "features": [ {"type": "Feature", "properties": {"norad_id": 38220, "name": "COSMOS 2251 DEB", "group": "cosmos-2251-debris", "lat": -9.889016197566258, "lon": -137.34523708438635, "alt_km": 594.4158795602234, "timestamp": "2025-12-26T21:25:53.407582+00:00", "meta": {"OBJECT_NAME": "COSMOS 2251 DEB", "OBJECT_ID": "1993-036BTL", "EPOCH": "2025-12-25T02:47:20.409216", "MEAN_MOTION": 14.93616578, "ECCENTRICITY": 0.00060459, "INCLINATION": 74.0136, "RA_OF_ASC_NODE": 43.3689, "ARG_OF_PERICENTER": 13.8896, "MEAN_ANOMALY": 346.2452, "EPHEMERIS_TYPE": 0, "CLASSIFICATION_TYPE": "U", "NORAD_CAT_ID": 38220, "ELEMENT_SET_NO": 999, "REV_AT_EPOCH": 71555, "BSTAR": 0.0029073609, "MEAN_MOTION_DOT": 0.00030813, "MEAN_MOTION_DDOT": 0}, "tle": {"line1": "1 38220U 93036BTL 25359.11620844  .00030813  00000+0  29074-2 0  9994", "line2": "2 38220  74.0136  43.3689 0006045  13.8896 346.2452 14.93616578715550"}}, "geometry": {"type": "Point", "coordinates": [-137.34523708438635, -9.889016197566258]}}, {"type": "Feature", "properties": {"norad_id": 38479, "name": "COSMOS 2251 DEB", "group": "cosmos-2251-debris", "lat": 40.867622571432186, "lon": 172.51950012916956, "alt_km": 804.8402046081419, "timestamp": "2025-12-26T21:25:53.407592+00:00", "meta": {"OBJECT_NAME": "COSMOS 2251 DEB", "OBJECT_ID": "1993-036BTP", "EPOCH": "2025-12-23T05:36:33.154848", "MEAN_MOTION": 14.38410381, "ECCENTRICITY": 0.00839559, "INCLINATION": 74.0057, "RA_OF_ASC_NODE": 164.9051, "ARG_OF_PERICENTER": 271.8436, "MEAN_ANOMALY": 269.121, "EPHEMERIS_TYPE": 0, "CLASSIFICATION_TYPE": "U", "NORAD_CAT_ID": 38479, "ELEMENT_SET_NO": 999, "REV_AT_EPOCH": 64838, "BSTAR": 0.0020977765, "MEAN_MOTION_DOT": 6.644e-05, "MEAN_MOTION_DDOT": 0}, "tle": {"line1": "1 38479U 93036BTP 25357.23371707  .00006644  00000+0  20978-2 0  9991", "line2": "2 38479  74.0057 164.9051 0083955 271.8436 269.1210 14.38410381648386"}}, "geometry": {"type": "Point", "coordinates": [172.51950012916956, 40.867622571432186]}}, {"type": "Feature", "properties": {"norad_id": 38481, "name": "COSMOS 2251 DEB", "group": "cosmos-2251-debris", "lat": -64.70275267914418, "lon": -159.33362277480583, "alt_km": 769.9304254861163, "timestamp": "2025-12-26T21:25:53.407603+00:00", "meta": {"OBJECT_NAME": "COSMOS 2251 DEB", "OBJECT_ID": "1993-036BTR", "EPOCH": "2025-12-24T16:34:49.611936", "MEAN_MOTION": 13.9488699, "ECCENTRICITY": 0.02349003, "INCLINATION": 73.9328, "RA_OF_ASC_NODE": 346.8989, "ARG_OF_PERICENTER": 284.9937, "MEAN_ANOMALY": 72.5302, "EPHEMERIS_TYPE": 0, "CLASSIFICATION_TYPE": "U", "NORAD_CAT_ID": 38481, "ELEMENT_SET_NO": 999, "REV_AT_EPOCH": 59227, "BSTAR": 0.0016488432, "MEAN_MOTION_DOT": 2.762e-05, "MEAN_MOTION_DDOT": 0}, "tle": {"line1": "1 38481U 93036BTR 25358.69085199  .00002762  00000+0  16488-2 0  9990", "line2": "2 38481  73.9328 346.8989 0234900 284.9937  72.5302 13.94886990592276"}}, "geometry": {"type": "Point", "coordinates": [-159.33362277480583, -64.70275267914418]}}, {"type": "Feature", "properties": {"norad_id": 38483, "name": "COSMOS 2251 DEB", "group": "cosmos-2251-debris", "lat": -69.91769909171168, "lon": -64.04711585868404, "alt_km": 879.0428242642665, "timestamp": "2025-12-26T21:25:53.407613+00:00", "meta": {"OBJECT_NAME": "COSMOS 2251 DEB", "OBJECT_ID": "1993-036BTT", "EPOCH": "2025-12-12T08:16:48.530496", "MEAN_MOTION": 14.28787654, "ECCENTRICITY": 0.01107994, "INCLINATION": 74.262, "RA_OF_ASC_NODE": 12.4521, "ARG_OF_PERICENTER": 118.0167, "MEAN_ANOMALY": 243.2246, "EPHEMERIS_TYPE": 0, "CLASSIFICATION_TYPE": "U", "NORAD_CAT_ID": 38483, "ELEMENT_SET_NO": 999, "REV_AT_EPOCH": 63472, "BSTAR": 0.0012977102, "MEAN_MOTION_DOT": 3.471e-05, "MEAN_MOTION_DDOT": 0}, "tle": {"line1": "1 38483U 93036BTT 25346.34500614  .00003471  00000+0  12977-2 0  9992", "line2": "2 38483  74.2620  12.4521 0110799 118.0167 243.2246 14.28787654634722"}}, "geometry": {"type": "Point", "coordinates": [-64.04711585868404, -69.91769909171168]}}, {"type": "Feature", "properties": {"norad_id": 38486, "name": "COSMOS 2251 DEB", "group": "cosmos-2251-debris", "lat": 14.213837598844318, "lon": -178.7077019278036, "alt_km": 637.8066418525968, "timestamp": "2025-12-26T21:25:53.407623+00:00", "meta": {"OBJECT_NAME": "COSMOS 2251 DEB", "OBJECT_ID": "1993-036BTW", "EPOCH": "2025-12-26T05:52:28.851168", "MEAN_MOTION": 14.73607575, "ECCENTRICITY": 0.00308492, "INCLINATION": 73.9406, "RA_OF_ASC_NODE": 178.3788, "ARG_OF_PERICENTER": 320.8667, "MEAN_ANOMALY": 216.4597, "EPHEMERIS_TYPE": 0, "CLASSIFICATION_TYPE": "U", "NORAD_CAT_ID": 38486, "ELEMENT_SET_NO": 999, "REV_AT_EPOCH": 75633, "BSTAR": 0.0022062553, "MEAN_MOTION_DOT": 0.00014479, "MEAN_MOTION_DDOT": 0}, "tle": {"line1": "1 38486U 93036BTW 25360.24477837  .00014479  00000+0  22063-2 0  9997", "line2": "2 38486  73.9406 178.3788 0030849 320.8667 216.4597 14.73607575756331"}}, "geometry": {"type": "Point", "coordinates": [-178.7077019278036, 14.213837598844318]}}, {"type": "Feature", "properties": {"norad_id": 38487, "name": "COSMOS 2251 DEB", "group": "cosmos-2251-debris", "lat": -65.99189700713056, "lon": -135.66255854227447, "alt_km": 514.8663188265127, "timestamp": "2025-12-26T21:25:53.407633+00:00", "meta": {"OBJECT_NAME": "COSMOS 2251 DEB", "OBJECT_ID": "1993-036BTX", "EPOCH": "2025-12-21T18:32:44.643552", "MEAN_MOTION": 15.1793295, "ECCENTRICITY": 0.00206459, "INCLINATION": 73.9735, "RA_OF_ASC_NODE": 14.8819, "ARG_OF_PERICENTER": 185.3276, "MEAN_ANOMALY": 174.7704, "EPHEMERIS_TYPE": 0, "CLASSIFICATION_TYPE": "U", "NORAD_CAT_ID": 38487, "ELEMENT_SET_NO": 999, "REV_AT_EPOCH": 66937, "BSTAR": 0.0019265154, "MEAN_MOTION_DOT": 0.00039496, "MEAN_MOTION_DDOT": 0}, "tle": {"line1": "1 38487U 93036BTX 25355.77273893  .00039496  00000+0  19265-2 0  9992", "line2": "2 38487  73.9735  14.8819 0020645 185.3276 174.7704 15.17932950669379"}}, "geometry": {"type": "Point", "coordinates": [-135.66255854227447, -65.99189700713056]}}, {"type": "Feature", "properties": {"norad_id": 39109, "name": "COSMOS 2251 DEB", "group": "cosmos-2251-debris", "lat": -59.14293382270916, "lon": 168.99798967129323, "alt_km": 623.3432960199734, "timestamp": "2025-12-26T21:25:53.407643+00:00", "meta": {"OBJECT_NAME": "COSMOS 2251 DEB", "OBJECT_ID": "1993-036BTY", "EPOCH": "2025-12-26T05:56:43.253376", "MEAN_MOTION": 14.70799754, "ECCENTRICITY": 0.00596027, "INCLINATION": 74.0417, "RA_OF_ASC_NODE": 198.8655, "ARG_OF_PERICENTER": 299.4353, "MEAN_ANOMALY": 182.2563, "EPHEMERIS_TYPE": 0, "CLASSIFICATION_TYPE": "U", "NORAD_CAT_ID": 39109, "ELEMENT_SET_NO": 999, "REV_AT_EPOCH": 65372, "BSTAR": 0.00047481447, "MEAN_MOTION_DOT": 2.947e-05, "MEAN_MOTION_DDOT": 0}, "tle": {"line1": "1 39109U 93036BTY 25360.24772284  .00002947  00000+0  47481-3 0  9993", "line2": "2 39109  74.0417 198.8655 0059602 299.4353 182.2563 14.70799754653729"}}, "geometry": {"type": "Point", "coordinates": [168.99798967129323, -59.14293382270916]}}, {"type": "Feature", "properties": {"norad_id": 39110, "name": "COSMOS 2251 DEB", "group": "cosmos-2251-debris", "lat": -16.128592424728794, "lon": -141.3885751787996, "alt_km": 630.1216524673973, "timestamp": "2025-12-26T21:25:53.407653+00:00", "meta": {"OBJECT_NAME": "COSMOS 2251 DEB", "OBJECT_ID": "1993-036BTZ", "EPOCH": "2025-12-17T22:04:59.920608", "MEAN_MOTION": 14.72312711, "ECCENTRICITY": 0.00972569, "INCLINATION": 73.9594, "RA_OF_ASC_NODE": 51.3772, "ARG_OF_PERICENTER": 282.7235, "MEAN_ANOMALY": 255.0933, "EPHEMERIS_TYPE": 0, "CLASSIFICATION_TYPE": "U", "NORAD_CAT_ID": 39110, "ELEMENT_SET_NO": 999, "REV_AT_EPOCH": 62560, "BSTAR": 0.00028872963, "MEAN_MOTION_DOT": 1.929e-05, "MEAN_MOTION_DDOT": 0}, "tle": {"line1": "1 39110U 93036BTZ 25351.92013797  .00001929  00000+0  28873-3 0  9990", "line2": "2 39110  73.9594  51.3772 0097256 282.7235 255.0933 14.72312711625601"}}, "geometry": {"type": "Point", "coordinates": [-141.3885751787996, -16.128592424728794]}}, {"type": "Feature", "properties": {"norad_id": 39111, "name": "COSMOS 2251 DEB", "group": "cosmos-2251-debris", "lat": 9.719439143797484, "lon": -171.16832439678925, "alt_km": 523.3096703438723, "timestamp": "2025-12-26T21:25:53.407663+00:00", "meta": {"OBJECT_NAME": "COSMOS 2251 DEB", "OBJECT_ID": "1993-036BUA", "EPOCH": "2025-12-01T22:58:55.551360", "MEAN_MOTION": 15.11912111, "ECCENTRICITY": 0.00109111, "INCLINATION": 74.0059, "RA_OF_ASC_NODE": 63.5328, "ARG_OF_PERICENTER": 39.1207, "MEAN_ANOMALY": 321.0773, "EPHEMERIS_TYPE": 0, "CLASSIFICATION_TYPE": "U", "NORAD_CAT_ID": 39111, "ELEMENT_SET_NO": 999, "REV_AT_EPOCH": 8982, "BSTAR": 0.0056424119, "MEAN_MOTION_DOT": 0.00098096, "MEAN_MOTION_DDOT": 0}, "tle": {"line1": "1 39111U 93036BUA 25335.95758740  .00098096  00000+0  56424-2 0  9993", "line2": "2 39111  74.0059  63.5328 0010911  39.1207 321.0773 15.11912111 89826"}}, "geometry": {"type": "Point", "coordinates": [-171.16832439678925, 9.719439143797484]}}, {"type": "Feature", "properties": {"norad_id": 39546, "name": "COSMOS 2251 DEB", "group": "cosmos-2251-debris", "lat": 3.344084051191747, "lon": -72.65259709463251, "alt_km": 592.408030820975, "timestamp": "2025-12-26T21:25:53.407673+00:00", "meta": {"OBJECT_NAME": "COSMOS 2251 DEB", "OBJECT_ID": "1993-036BUC", "EPOCH": "2025-12-25T23:43:29.901792", "MEAN_MOTION": 14.92423916, "ECCENTRICITY": 0.00441766, "INCLINATION": 73.9984, "RA_OF_ASC_NODE": 110.1282, "ARG_OF_PERICENTER": 268.5, "MEAN_ANOMALY": 91.1122, "EPHEMERIS_TYPE": 0, "CLASSIFICATION_TYPE": "U", "NORAD_CAT_ID": 39546, "ELEMENT_SET_NO": 999, "REV_AT_EPOCH": 64634, "BSTAR": 0.0015434889, "MEAN_MOTION_DOT": 0.00016116, "MEAN_MOTION_DDOT": 0}, "tle": {"line1": "1 39546U 93036BUC 25359.98854053  .00016116  00000+0  15435-2 0  9998", "line2": "2 39546  73.9984 110.1282 0044176 268.5000  91.1122 14.92423916646347"}}, "geometry": {"type": "Point", "coordinates": [-72.65259709463251, 3.344084051191747]}}]}